{
  "type": "FeatureCollection",
  "features": [
    {
      "type": "Feature",
      "properties": {
        "norad_id": 41581,
        "name": "INTELSAT 31 (IS-31)",
        "group": "intelsat",
        "lat": -0.00113850612265325,
        "lon": 125.1061690776044,
        "alt_km": 35785.7363840446,
        "timestamp": "2025-12-16T08:59:42.826927+00:00",
        "meta_object_name": "INTELSAT 31 (IS-31)",
        "meta_object_id": "2016-035A",
        "meta_epoch": "2025-12-15T21:29:49.627392",
        "meta_mean_motion": 1.00270633,
        "meta_eccentricity": 0.00018444,
        "meta_inclination": 0.0188,
        "meta_ra_of_asc_node": 273.8522,
        "meta_arg_of_pericenter": 295.8843,
        "meta_mean_anomaly": 102.4606,
        "meta_ephemeris_type": 0,
        "meta_classification_type": "U",
        "meta_norad_cat_id": 41581,
        "meta_element_set_no": 999,
        "meta_rev_at_epoch": 3484,
        "meta_bstar": 0,
        "meta_mean_motion_dot": -1.28e-06,
        "meta_mean_motion_ddot": 0,
        "tle_line1": "1 41581U 16035A   25349.89571328 -.00000128  00000+0  00000+0 0  9990",
        "tle_line2": "2 41581   0.0188 273.8522 0001844 295.8843 102.4606  1.00270633 34843"
      },
      "geometry": {
        "type": "Point",
        "coordinates": [
          125.1061690776044,
          -0.00113850612265325
        ]
      }
    },
    {
      "type": "Feature",
      "properties": {
        "norad_id": 41747,
        "name": "INTELSAT 36 (IS-36)",
        "group": "intelsat",
        "lat": -0.02921170647871892,
        "lon": -71.33871033709507,
        "alt_km": 35782.54920905907,
        "timestamp": "2025-12-16T08:59:42.826939+00:00",
        "meta_object_name": "INTELSAT 36 (IS-36)",
        "meta_object_id": "2016-053A",
        "meta_epoch": "2025-12-15T22:16:22.668960",
        "meta_mean_motion": 1.00271054,
        "meta_eccentricity": 0.00011381,
        "meta_inclination": 0.011,
        "meta_ra_of_asc_node": 353.2543,
        "meta_arg_of_pericenter": 334.3264,
        "meta_mean_anomaly": 159.8273,
        "meta_ephemeris_type": 0,
        "meta_classification_type": "U",
        "meta_norad_cat_id": 41747,
        "meta_element_set_no": 999,
        "meta_rev_at_epoch": 3411,
        "meta_bstar": 0,
        "meta_mean_motion_dot": -2e-08,
        "meta_mean_motion_ddot": 0,
        "tle_line1": "1 41747U 16053A   25349.92804015 -.00000002  00000+0  00000+0 0  9991",
        "tle_line2": "2 41747   0.0110 353.2543 0001138 334.3264 159.8273  1.00271054 34114"
      },
      "geometry": {
        "type": "Point",
        "coordinates": [
          -71.33871033709507,
          -0.02921170647871892
        ]
      }
    },
    {
      "type": "Feature",
      "properties": {
        "norad_id": 41945,
        "name": "INTELSAT 32E (IS-32E)",
        "group": "intelsat",
        "lat": 0.016630333015132382,
        "lon": 177.0083006414437,
        "alt_km": 35786.99239419329,
        "timestamp": "2025-12-16T08:59:42.826951+00:00",
        "meta_object_name": "INTELSAT 32E (IS-32E)",
        "meta_object_id": "2017-007B",
        "meta_epoch": "2025-12-15T18:19:03.311328",
        "meta_mean_motion": 1.00271256,
        "meta_eccentricity": 2.918e-05,
        "meta_inclination": 0.0313,
        "meta_ra_of_asc_node": 77.2061,
        "meta_arg_of_pericenter": 334.9204,
        "meta_mean_anomaly": 264.1246,
        "meta_ephemeris_type": 0,
        "meta_classification_type": "U",
        "meta_norad_cat_id": 41945,
        "meta_element_set_no": 999,
        "meta_rev_at_epoch": 3238,
        "meta_bstar": 0,
        "meta_mean_motion_dot": -2.47e-06,
        "meta_mean_motion_ddot": 0,
        "tle_line1": "1 41945U 17007B   25349.76323277 -.00000247  00000+0  00000+0 0  9990",
        "tle_line2": "2 41945   0.0313  77.2061 0000291 334.9204 264.1246  1.00271256 32387"
      },
      "geometry": {
        "type": "Point",
        "coordinates": [
          177.0083006414437,
          0.016630333015132382
        ]
      }
    },
    {
      "type": "Feature",
      "properties": {
        "norad_id": 42818,
        "name": "INTELSAT 35E (IS-35E)",
        "group": "intelsat",
        "lat": -0.014817668999704664,
        "lon": -174.3395653537543,
        "alt_km": 35785.40727932866,
        "timestamp": "2025-12-16T08:59:42.826963+00:00",
        "meta_object_name": "INTELSAT 35E (IS-35E)",
        "meta_object_id": "2017-041A",
        "meta_epoch": "2025-12-15T23:05:39.563808",
        "meta_mean_motion": 1.00270451,
        "meta_eccentricity": 0.00018416,
        "meta_inclination": 0.0241,
        "meta_ra_of_asc_node": 352.7937,
        "meta_arg_of_pericenter": 274.9317,
        "meta_mean_anomaly": 129.0497,
        "meta_ephemeris_type": 0,
        "meta_classification_type": "U",
        "meta_norad_cat_id": 42818,
        "meta_element_set_no": 999,
        "meta_rev_at_epoch": 3097,
        "meta_bstar": 0,
        "meta_mean_motion_dot": 0,
        "meta_mean_motion_ddot": 0,
        "tle_line1": "1 42818U 17041A   25349.96226347  .00000000  00000+0  00000+0 0  9996",
        "tle_line2": "2 42818   0.0241 352.7937 0001841 274.9317 129.0497  1.00270451 30976"
      },
      "geometry": {
        "type": "Point",
        "coordinates": [
          -174.3395653537543,
          -0.014817668999704664
        ]
      }
    },
    {
      "type": "Feature",
      "properties": {
        "norad_id": 42950,
        "name": "INTELSAT 37E (IS-37E)",
        "group": "intelsat",
        "lat": -0.032373919169050344,
        "lon": -157.84316756183176,
        "alt_km": 35778.62601945275,
        "timestamp": "2025-12-16T08:59:42.826974+00:00",
        "meta_object_name": "INTELSAT 37E (IS-37E)",
        "meta_object_id": "2017-059A",
        "meta_epoch": "2025-12-15T21:51:47.522880",
        "meta_mean_motion": 1.00271328,
        "meta_eccentricity": 0.00030555,
        "meta_inclination": 0.0195,
        "meta_ra_of_asc_node": 332.0029,
        "meta_arg_of_pericenter": 284.1512,
        "meta_mean_anomaly": 138.6062,
        "meta_ephemeris_type": 0,
        "meta_classification_type": "U",
        "meta_norad_cat_id": 42950,
        "meta_element_set_no": 999,
        "meta_rev_at_epoch": 3022,
        "meta_bstar": 0,
        "meta_mean_motion_dot": -1.18e-06,
        "meta_mean_motion_ddot": 0,
        "tle_line1": "1 42950U 17059A   25349.91096670 -.00000118  00000+0  00000+0 0  9992",
        "tle_line2": "2 42950   0.0195 332.0029 0003055 284.1512 138.6062  1.00271328 30229"
      },
      "geometry": {
        "type": "Point",
        "coordinates": [
          -157.84316756183176,
          -0.032373919169050344
        ]
      }
    },
    {
      "type": "Feature",
      "properties": {
        "norad_id": 43632,
        "name": "AZERSPACE 2 (IS-38)",
        "group": "intelsat",
        "lat": -0.039081312320171056,
        "lon": -94.70575974421146,
        "alt_km": 35781.14497594431,
        "timestamp": "2025-12-16T08:59:42.826986+00:00",
        "meta_object_name": "AZERSPACE 2 (IS-38)",
        "meta_object_id": "2018-074A",
        "meta_epoch": "2025-12-15T22:09:45.801792",
        "meta_mean_motion": 1.00271417,
        "meta_eccentricity": 0.00011857,
        "meta_inclination": 0.0164,
        "meta_ra_of_asc_node": 358.7051,
        "meta_arg_of_pericenter": 272.6561,
        "meta_mean_anomaly": 191.0142,
        "meta_ephemeris_type": 0,
        "meta_classification_type": "U",
        "meta_norad_cat_id": 43632,
        "meta_element_set_no": 999,
        "meta_rev_at_epoch": 2661,
        "meta_bstar": 0,
        "meta_mean_motion_dot": 1.59e-06,
        "meta_mean_motion_ddot": 0,
        "tle_line1": "1 43632U 18074A   25349.92344678  .00000159  00000+0  00000+0 0  9997",
        "tle_line2": "2 43632   0.0164 358.7051 0001185 272.6561 191.0142  1.00271417 26610"
      },
      "geometry": {
        "type": "Point",
        "coordinates": [
          -94.70575974421146,
          -0.039081312320171056
        ]
      }
    },
    {
      "type": "Feature",
      "properties": {
        "norad_id": 43633,
        "name": "HORIZONS-3E",
        "group": "intelsat",
        "lat": 0.019860384402962544,
        "lon": 29.171416491976956,
        "alt_km": 35787.528778806816,
        "timestamp": "2025-12-16T08:59:42.826998+00:00",
        "meta_object_name": "HORIZONS-3E",
        "meta_object_id": "2018-074B",
        "meta_epoch": "2025-12-15T05:37:52.787136",
        "meta_mean_motion": 1.00269929,
        "meta_eccentricity": 9.177e-05,
        "meta_inclination": 0.0461,
        "meta_ra_of_asc_node": 189.5477,
        "meta_arg_of_pericenter": 95.4301,
        "meta_mean_anomaly": 52.6199,
        "meta_ephemeris_type": 0,
        "meta_classification_type": "U",
        "meta_norad_cat_id": 43633,
        "meta_element_set_no": 999,
        "meta_rev_at_epoch": 2649,
        "meta_bstar": 0,
        "meta_mean_motion_dot": -1e-07,
        "meta_mean_motion_ddot": 0,
        "tle_line1": "1 43633U 18074B   25349.23463874 -.00000010  00000+0  00000+0 0  9999",
        "tle_line2": "2 43633   0.0461 189.5477 0000917  95.4301  52.6199  1.00269929 26493"
      },
      "geometry": {
        "type": "Point",
        "coordinates": [
          29.171416491976956,
          0.019860384402962544
        ]
      }
    }
  ]
}